NORAD_CAT_ID,OBJECT_NAME,OBJECT_TYPE,EPOCH,MEAN_MOTION,ECCENTRICITY,INCLINATION,RA_OF_ASC_NODE,ARG_OF_PERICENTER,MEAN_ANOMALY,BSTAR,MEAN_MOTION_DOT,MEAN_MOTION_DDOT,TLE_LINE0,TLE_LINE1,TLE_LINE2,SEMIMAJOR_AXIS,PERIOD,APOGEE,PERIGEE,DECAYED
52474.0,STARLINK-3855,PAYLOAD,2022-05-13 14:00:01,15.80141548,0.0001733,53.2176,230.8656,27.4462,311.9128,-0.0051043999999999,-0.00880894,0.0,0 STARLINK-3855,1 52474U 22049Z   22133.58334491 -.00880894  00000-0 -51044-2 0  9992,2 52474  53.2176 230.8656 0001733  27.4462 311.9128 15.80141548  1303,6708.177,91.131,331.205,328.879,0.0
52474.0,STARLINK-3855,PAYLOAD,2022-05-13 16:00:00,15.79913697,0.0001681,53.2166,230.4486,36.7138,56.971,-0.0045438,-0.00784808,0.0,0 STARLINK-3855,1 52474U 22049Z   22133.66667824 -.00784808  00000-0 -45438-2 0  9998,2 52474  53.2166 230.4486 0001681  36.7138  56.9710 15.79913697  1318,6708.821999999999,91.144,331.815,329.559,0.0
52474.0,STARLINK-3855,PAYLOAD,2022-05-14 06:00:00,15.78880669,0.0001786,53.2174,227.5334,32.2209,140.1452,-0.0053701,-0.00875232,0.0,0 STARLINK-3855,1 52474U 22049Z   22134.25001157 -.00875232  00000-0 -53701-2 0  9999,2 52474  53.2174 227.5334 0001786  32.2209 140.1452 15.78880669  1402,6711.748000000001,91.204,334.8119999999999,332.414,0.0
52474.0,STARLINK-3855,PAYLOAD,2022-05-14 14:00:01,15.78252794,0.0001895,53.2174,225.8729,28.9053,238.828,-0.0055516,-0.00878986,0.0,0 STARLINK-3855,1 52474U 22049Z   22134.58334491 -.00878986  00000-0 -55516-2 0  9990,2 52474  53.2174 225.8729 0001895  28.9053 238.8280 15.78252794  1306,6713.528,91.24,336.665,334.121,0.0
52474.0,STARLINK-3855,PAYLOAD,2022-05-14 22:00:00,15.77623319,0.0001415,53.2175,224.2107,34.7627,327.5833,-0.0057042,-0.00877752,0.0,0 STARLINK-3855,1 52474U 22049Z   22134.91667824 -.00877752  00000-0 -57042-2 0  9992,2 52474  53.2175 224.2107 0001415  34.7627 327.5833 15.77623319  1304,6715.314,91.277,338.129,336.228,0.0
52474.0,STARLINK-3855,PAYLOAD,2022-05-15 06:00:00,15.76991439,0.0001805,53.2177,222.5501,28.0487,68.1546,-0.0058304,-0.00872734,0.0,0 STARLINK-3855,1 52474U 22049Z   22135.25001157 -.00872734  00000-0 -58304-2 0  9998,2 52474  53.2177 222.5501 0001805  28.0487  68.1546 15.76991439  1565,6717.107,91.313,340.185,337.76,0.0
52474.0,STARLINK-3855,PAYLOAD,2022-05-15 14:00:01,15.76363442,0.0001945,53.2176,220.8941,30.8795,158.4878,-0.006016,-0.00875386,0.0,0 STARLINK-3855,1 52474U 22049Z   22135.58335648 -.00875386  00000-0 -60160-2 0  9998,2 52474  53.2176 220.8941 0001945  30.8795 158.4878 15.76363442  1301,6718.891,91.349,342.0630000000001,339.449,0.0
52474.0,STARLINK-3855,PAYLOAD,2022-05-15 22:00:00,15.75736318,0.0001546,53.2174,219.2363,36.2596,245.3857,-0.006215,-0.00878977,0.0,0 STARLINK-3855,1 52474U 22049Z   22135.91667824 -.00878977  00000-0 -62150-2 0  9999,2 52474  53.2174 219.2363 0001546  36.2596 245.3857 15.75736318  1303,6720.674,91.386,343.5780000000001,341.5,0.0
52474.0,STARLINK-3855,PAYLOAD,2022-05-16 06:00:02,15.75104556,0.0001373,53.2175,217.5806,39.5574,333.742,-0.0063513,-0.00874023,0.0,0 STARLINK-3855,1 52474U 22049Z   22136.25002315 -.00874023  00000-0 -63513-2 0  9997,2 52474  53.2175 217.5806 0001373  39.5574 333.7420 15.75104556  1724,6722.471,91.423,345.259,343.413,0.0
52474.0,STARLINK-3855,PAYLOAD,2022-05-16 14:00:01,15.74475154,0.0001823,53.2175,215.9293,29.8892,74.1746,-0.0065262,-0.00873823,0.0,0 STARLINK-3855,1 52474U 22049Z   22136.58334491 -.00873823  00000-0 -65262-2 0  9996,2 52474  53.2175 215.9293 0001823  29.8892  74.1746 15.74475154  1306,6724.262,91.459,347.353,344.901,0.0
52474.0,STARLINK-3855,PAYLOAD,2022-05-16 22:00:00,15.73777,0.000161,53.2176,214.2759,39.2788,154.8745,-0.0053485,-0.00708611,0.0,0 STARLINK-3855,1 52474U 22049Z   22136.91667824 -.00708611  00000-0 -53485-2 0  9998,2 52474  53.2176 214.2759 0001610  39.2788 154.8745 15.73777000  1308,6726.251,91.5,349.199,347.033,0.0
52474.0,STARLINK-3855,PAYLOAD,2022-05-17 06:00:00,15.73206108,0.0001602,53.2178,212.625,42.1633,241.2977,-1.7958e-05,-3.141e-05,0.0,0 STARLINK-3855,1 52474U 22049Z   22137.25001157 -.00003141  00000-0 -17958-4 0  9990,2 52474  53.2178 212.6250 0001602  42.1633 241.2977 15.73206108  1877,6727.878000000002,91.533,350.821,348.665,0.0
52474.0,STARLINK-3855,PAYLOAD,2022-05-17 14:00:01,15.73252407,0.0001805,53.2155,210.9764,27.5673,344.8559,-0.00038185,-0.00053991,0.0,0 STARLINK-3855,1 52474U 22049Z   22137.58335648 -.00053991  00000-0 -38185-3 0  9993,2 52474  53.2155 210.9764 0001805  27.5673 344.8559 15.73252407  1306,6727.746,91.53,350.825,348.396,0.0
52474.0,STARLINK-3855,PAYLOAD,2022-05-17 20:00:01,15.73267343,0.0001740999999999,53.2137,209.7351,20.9828,328.1122,0.00038806,0.00054353,0.0,0 STARLINK-3855,1 52474U 22049Z   22137.83334491  .00054353  00000-0  38806-3 0  9997,2 52474  53.2137 209.7351 0001741  20.9828 328.1122 15.73267343  1971,6727.703,91.529,350.73900000000015,348.397,0.0
52474.0,STARLINK-3855,PAYLOAD,2022-05-17 22:00:01,15.732831699999998,0.0001665,53.2143,209.3219,23.0013,78.4109,0.00030512,0.00042572,0.0,0 STARLINK-3855,1 52474U 22049Z   22137.91668981  .00042572  00000-0  30512-3 0  9996,2 52474  53.2143 209.3219 0001665  23.0013  78.4109 15.73283170  1305,6727.658,91.528,350.64300000000014,348.403,0.0
52474.0,STARLINK-3855,PAYLOAD,2022-05-18 12:00:00,15.73279648,0.0002004,53.215,206.4362,32.0385,135.1295,-0.00032249,-0.00045793,0.0,0 STARLINK-3855,1 52474U 22049Z   22138.50001157 -.00045793  00000-0 -32249-3 0  9997,2 52474  53.2150 206.4362 0002004  32.0385 135.1295 15.73279648  2077,6727.668000000002,91.529,350.881,348.185,0.0
52474.0,STARLINK-3855,PAYLOAD,2022-05-18 14:00:01,15.73269893,0.0002044,53.2151,206.0242,31.024,248.3991,-0.00026928,-0.00038358,0.0,0 STARLINK-3855,1 52474U 22049Z   22138.58334491 -.00038358  00000-0 -26928-3 0  9991,2 52474  53.2151 206.0242 0002044  31.0240 248.3991 15.73269893  1300,6727.696,91.529,350.936,348.186,0.0
52474.0,STARLINK-3855,PAYLOAD,2022-05-18 20:00:01,15.7325773,0.0001985,53.2149,204.7857,32.0704,224.072,-0.001424,-0.00196384,0.0,0 STARLINK-3855,1 52474U 22049Z   22138.83334491 -.00196384  00000-0 -14240-2 0  9996,2 52474  53.2149 204.7857 0001985  32.0704 224.0720 15.73257730  2122,6727.731,91.53,350.931,348.26,0.0
52474.0,STARLINK-3855,PAYLOAD,2022-05-18 22:00:00,15.73208536,0.0001893,53.2151,204.3728,33.1199,335.2682,-0.0010625,-0.00147222,0.0,0 STARLINK-3855,1 52474U 22049Z   22138.91667824 -.00147222  00000-0 -10625-2 0  9994,2 52474  53.2151 204.3728 0001893  33.1199 335.2682 15.73208536  1307,6727.871,91.533,351.009,348.462,0.0
52474.0,STARLINK-3855,PAYLOAD,2022-05-19 14:00:01,15.73195342,0.0002062,53.2145,201.0755,26.2011,160.1017,0.00038877,0.00054286,0.0,0 STARLINK-3855,1 52474U 22049Z   22139.58335648  .00054286  00000-0  38877-3 0  9999,2 52474  53.2145 201.0755 0002062  26.2011 160.1017 15.73195342  1306,6727.908,91.533,351.161,348.386,0.0
52474.0,STARLINK-3855,PAYLOAD,2022-05-19 22:00:00,15.73206325,0.000186,53.2142,199.4241,24.9936,250.217,0.00022829,0.00031548,0.0,0 STARLINK-3855,1 52474U 22049Z   22139.91667824  .00031548  00000-0  22829-3 0  9996,2 52474  53.2142 199.4241 0001860  24.9936 250.2170 15.73206325  2293,6727.877,91.533,350.994,348.491,0.0
52474.0,STARLINK-3855,PAYLOAD,2022-05-20 14:00:01,15.73194501,0.0002131,53.2146,196.1269,23.8429,69.2739,-0.00031537,-0.00044641,0.0,0 STARLINK-3855,1 52474U 22049Z   22140.58334491 -.00044641  00000-0 -31537-3 0  9998,2 52474  53.2146 196.1269 0002131  23.8429  69.2739 15.73194501  2402,6727.911,91.534,351.21,348.342,0.0
52474.0,STARLINK-3855,PAYLOAD,2022-05-20 22:00:00,15.73163674,0.0001999,53.2148,194.4753,25.0666,156.9708,-0.0003458999999999,-0.00048813,0.0,0 STARLINK-3855,1 52474U 22049Z   22140.91667824 -.00048813  00000-0 -34590-3 0  9991,2 52474  53.2148 194.4753 0001999  25.0666 156.9708 15.73163674  1306,6727.999,91.535,351.209,348.519,0.0
52474.0,STARLINK-3855,PAYLOAD,2022-05-21 06:00:00,15.73040478,0.0001973,53.2172,192.8298,33.5448,237.2062,0.0019034,0.00273521,0.0,0 STARLINK-3855,1 52474U 22049Z   22141.25001157  .00273521  00000-0  19034-2 0  9999,2 52474  53.2172 192.8298 0001973  33.5448 237.2062 15.73040478  2508,6728.35,91.542,351.543,348.88800000000015,0.0
52474.0,STARLINK-3855,PAYLOAD,2022-05-21 14:00:01,15.7316312,0.0002302,53.2144,191.1783,22.4153,337.4845,0.00077106,0.00108839,0.0,0 STARLINK-3855,1 52474U 22049Z   22141.58335648  .00108839  00000-0  77106-3 0  9994,2 52474  53.2144 191.1783 0002302  22.4153 337.4845 15.73163120  2563,6728.0,91.535,351.414,348.31699999999995,0.0
52474.0,STARLINK-3855,PAYLOAD,2022-05-21 20:00:01,15.73249813,0.0002164,53.2143,189.9396,27.2089,309.3165,-0.0004653,-0.00065563,0.0,0 STARLINK-3855,1 52474U 22049Z   22141.83334491 -.00065563  00000-0 -46530-3 0  9992,2 52474  53.2143 189.9396 0002164  27.2089 309.3165 15.73249813  2606,6727.753000000002,91.53,351.074,348.162,0.0
52474.0,STARLINK-3855,PAYLOAD,2022-05-21 22:00:00,15.73212031,0.0002105,53.2144,189.5268,28.4839,60.2946,1.1268e-05,9.61e-06,0.0,0 STARLINK-3855,1 52474U 22049Z   22141.91667824  .00000961  00000-0  11268-4 0  9990,2 52474  53.2144 189.5268 0002105  28.4839  60.2946 15.73212031  1300,6727.861,91.532,351.142,348.31,0.0
52474.0,STARLINK-3855,PAYLOAD,2022-05-22 14:00:01,15.73189911,0.0002366,53.2148,186.2298,26.9831,239.6578,-0.00034358,-0.00048549,0.0,0 STARLINK-3855,1 52474U 22049Z   22142.58334491 -.00048549  00000-0 -34358-3 0  9995,2 52474  53.2148 186.2298 0002366  26.9831 239.6578 15.73189911  2714,6727.924,91.534,351.381,348.19699999999995,0.0
52474.0,STARLINK-3855,PAYLOAD,2022-05-22 22:00:01,15.73123169,0.0002127,53.215,184.5782,25.7508,329.8765,0.00071816,0.0010106,0.0,0 STARLINK-3855,1 52474U 22049Z   22142.91668981  .00101060  00000-0  71816-3 0  9992,2 52474  53.2150 184.5782 0002127  25.7508 329.8765 15.73123169  1306,6728.114000000001,91.538,351.41,348.548,0.0
